{
  "links" : {
    "next" : "https://api.nasa.gov/neo/rest/v1/feed?start_date=2015-07-16&end_date=2015-07-16&detailed=true&api_key=t0TVs3DtDT2H8Oy2Zy8m2eVrNsAVKAexjcZXUckd",
    "prev" : "https://api.nasa.gov/neo/rest/v1/feed?start_date=2015-07-14&end_date=2015-07-14&detailed=true&api_key=t0TVs3DtDT2H8Oy2Zy8m2eVrNsAVKAexjcZXUckd",
    "self" : "https://api.nasa.gov/neo/rest/v1/feed?start_date=2015-07-15&end_date=2015-07-15&detailed=true&api_key=t0TVs3DtDT2H8Oy2Zy8m2eVrNsAVKAexjcZXUckd"
  },
  "element_count" : 8,
  "near_earth_objects" : {
    "2015-07-15" : [ {
      "links" : {
        "self" : "https://api.nasa.gov/neo/rest/v1/neo/2366733?api_key=t0TVs3DtDT2H8Oy2Zy8m2eVrNsAVKAexjcZXUckd"
      },
      "neo_reference_id" : "2366733",
      "name" : "366733 (2004 BG121)",
      "nasa_jpl_url" : "http://ssd.jpl.nasa.gov/sbdb.cgi?sstr=2366733",
      "absolute_magnitude_h" : 19.1,
      "estimated_diameter" : {
        "kilometers" : {
          "estimated_diameter_min" : 0.4023045798,
          "estimated_diameter_max" : 0.8995803882
        },
        "meters" : {
          "estimated_diameter_min" : 402.3045798343,
          "estimated_diameter_max" : 899.5803881691
        },
        "miles" : {
          "estimated_diameter_min" : 0.2499803991,
          "estimated_diameter_max" : 0.5589731654
        },
        "feet" : {
          "estimated_diameter_min" : 1319.8969577037,
          "estimated_diameter_max" : 2951.3793207207
        }
      },
      "is_potentially_hazardous_asteroid" : false,
      "close_approach_data" : [ {
        "close_approach_date" : "2015-07-15",
        "epoch_date_close_approach" : 1436943600000,
        "relative_velocity" : {
          "kilometers_per_second" : "18.1515140605",
          "kilometers_per_hour" : "65345.4506178558",
          "miles_per_hour" : "40603.1218019671"
        },
        "miss_distance" : {
          "astronomical" : "0.3968291629",
          "lunar" : "154.3665466309",
          "kilometers" : "59364796",
          "miles" : "36887576"
        },
        "orbiting_body" : "Earth"
      } ],
      "orbital_data" : {
        "orbit_id" : "79",
        "orbit_determination_date" : "2017-09-25 06:52:14",
        "orbit_uncertainty" : "0",
        "minimum_orbit_intersection" : ".0711418",
        "jupiter_tisserand_invariant" : "4.215",
        "epoch_osculation" : "2458000.5",
        "eccentricity" : ".3424920244272601",
        "semi_major_axis" : "1.611799651629956",
        "inclination" : "19.42492139028981",
        "ascending_node_longitude" : "128.6604216010901",
        "orbital_period" : "747.4205135308197",
        "perihelion_distance" : "1.05977112597206",
        "perihelion_argument" : "206.8410814940374",
        "aphelion_distance" : "2.163828177287852",
        "perihelion_time" : "2457987.293184187584",
        "mean_anomaly" : "6.361149589017582",
        "mean_motion" : ".4816565688026912",
        "equinox" : "J2000"
      }
    }, {
      "links" : {
        "self" : "https://api.nasa.gov/neo/rest/v1/neo/2385186?api_key=t0TVs3DtDT2H8Oy2Zy8m2eVrNsAVKAexjcZXUckd"
      },
      "neo_reference_id" : "2385186",
      "name" : "385186 (1994 AW1)",
      "nasa_jpl_url" : "http://ssd.jpl.nasa.gov/sbdb.cgi?sstr=2385186",
      "absolute_magnitude_h" : 17.7,
      "estimated_diameter" : {
        "kilometers" : {
          "estimated_diameter_min" : 0.7665755735,
          "estimated_diameter_max" : 1.7141150923
        },
        "meters" : {
          "estimated_diameter_min" : 766.5755735311,
          "estimated_diameter_max" : 1714.1150923063
        },
        "miles" : {
          "estimated_diameter_min" : 0.4763278307,
          "estimated_diameter_max" : 1.065101409
        },
        "feet" : {
          "estimated_diameter_min" : 2515.0118046636,
          "estimated_diameter_max" : 5623.7373594423
        }
      },
      "is_potentially_hazardous_asteroid" : true,
      "close_approach_data" : [ {
        "close_approach_date" : "2015-07-15",
        "epoch_date_close_approach" : 1436943600000,
        "relative_velocity" : {
          "kilometers_per_second" : "12.4451634494",
          "kilometers_per_hour" : "44802.5884177892",
          "miles_per_hour" : "27838.5861199313"
        },
        "miss_distance" : {
          "astronomical" : "0.0650118831",
          "lunar" : "25.2896213531",
          "kilometers" : "9725639",
          "miles" : "6043232"
        },
        "orbiting_body" : "Earth"
      } ],
      "orbital_data" : {
        "orbit_id" : "207",
        "orbit_determination_date" : "2017-04-06 09:22:13",
        "orbit_uncertainty" : "0",
        "minimum_orbit_intersection" : ".0197655",
        "jupiter_tisserand_invariant" : "5.547",
        "epoch_osculation" : "2458000.5",
        "eccentricity" : ".07577564101669712",
        "semi_major_axis" : "1.105266171189834",
        "inclination" : "24.09537414994134",
        "ascending_node_longitude" : "290.3703529147948",
        "orbital_period" : "424.4228365609345",
        "perihelion_distance" : "1.021513918573853",
        "perihelion_argument" : "37.01945114016802",
        "aphelion_distance" : "1.189018423805814",
        "perihelion_time" : "2458107.042759914073",
        "mean_anomaly" : "269.6292888482229",
        "mean_motion" : ".848210720509415",
        "equinox" : "J2000"
      }
    }, {
      "links" : {
        "self" : "https://api.nasa.gov/neo/rest/v1/neo/3591753?api_key=t0TVs3DtDT2H8Oy2Zy8m2eVrNsAVKAexjcZXUckd"
      },
      "neo_reference_id" : "3591753",
      "name" : "(2011 YC29)",
      "nasa_jpl_url" : "http://ssd.jpl.nasa.gov/sbdb.cgi?sstr=3591753",
      "absolute_magnitude_h" : 22.4,
      "estimated_diameter" : {
        "kilometers" : {
          "estimated_diameter_min" : 0.0880146521,
          "estimated_diameter_max" : 0.1968067451
        },
        "meters" : {
          "estimated_diameter_min" : 88.0146520901,
          "estimated_diameter_max" : 196.8067450894
        },
        "miles" : {
          "estimated_diameter_min" : 0.0546897524,
          "estimated_diameter_max" : 0.122290004
        },
        "feet" : {
          "estimated_diameter_min" : 288.7619911632,
          "estimated_diameter_max" : 645.6914415591
        }
      },
      "is_potentially_hazardous_asteroid" : false,
      "close_approach_data" : [ {
        "close_approach_date" : "2015-07-15",
        "epoch_date_close_approach" : 1436943600000,
        "relative_velocity" : {
          "kilometers_per_second" : "12.177228425",
          "kilometers_per_hour" : "43838.0223298531",
          "miles_per_hour" : "27239.2422637912"
        },
        "miss_distance" : {
          "astronomical" : "0.0630871632",
          "lunar" : "24.5409069061",
          "kilometers" : "9437706",
          "miles" : "5864318.5"
        },
        "orbiting_body" : "Earth"
      } ],
      "orbital_data" : {
        "orbit_id" : "23",
        "orbit_determination_date" : "2017-04-06 08:59:31",
        "orbit_uncertainty" : "1",
        "minimum_orbit_intersection" : ".0607642",
        "jupiter_tisserand_invariant" : "5.115",
        "epoch_osculation" : "2458000.5",
        "eccentricity" : ".1564546678634704",
        "semi_major_axis" : "1.229724866121043",
        "inclination" : "23.05959227941207",
        "ascending_node_longitude" : "290.1491104862013",
        "orbital_period" : "498.0929092906415",
        "perihelion_distance" : "1.037328670628625",
        "perihelion_argument" : "44.39063407969024",
        "aphelion_distance" : "1.422121061613462",
        "perihelion_time" : "2457760.960257089347",
        "mean_anomaly" : "173.1289601585488",
        "mean_motion" : ".7227567252717844",
        "equinox" : "J2000"
      }
    } ]
  }
}